start=new Date('2022-06-12T00:00:00.000Z').valueOf();
sats=[{"BSTAR":"0.00286840000000","REV_AT_EPOCH":"130","SEMIMAJOR_AXIS":"6917.975","TIME_SYSTEM":"UTC","ELEMENT_SET_NO":"999","REF_FRAME":"TEME","FILE":"3492149","PERIAPSIS":"538.616","OBJECT_NAME":"STARLINK-3532","SITE":"AFETR","LAUNCH_DATE":"2022-02-21","CLASSIFICATION_TYPE":"U","MEAN_MOTION_DDOT":"0.0000000000000","APOAPSIS":"541.065","DECAY_DATE":null,"MEAN_MOTION":"15.08809016","MEAN_ELEMENT_THEORY":"SGP4","EPHEMERIS_TYPE":"0","NORAD_CAT_ID":"51727","MEAN_ANOMALY":"334.1798","ECCENTRICITY":"0.00017700","TLE_LINE2":"2 51727  53.2161 344.8020 0001770  49.0179 334.1798 15.08809016  1305","EPOCH":"2022-06-11T22:00:00.999936","PERIOD":"95.440","ARG_OF_PERICENTER":"49.0179","OBJECT_ID":"2022-016P","TLE_LINE1":"1 51727U 22016P   22162.91667824  .00045620  00000-0  28684-2 0  9996","COUNTRY_CODE":"US","INCLINATION":"53.2161","MEAN_MOTION_DOT":"0.00045620","OBJECT_TYPE":"PAYLOAD","CENTER_NAME":"EARTH","GP_ID":"205929315","RA_OF_ASC_NODE":"344.8020","RCS_SIZE":"LARGE"},{"RCS_SIZE":"LARGE","GP_ID":"205928065","RA_OF_ASC_NODE":"334.7883","CENTER_NAME":"EARTH","OBJECT_TYPE":"PAYLOAD","COUNTRY_CODE":"US","MEAN_MOTION_DOT":"0.00055632","INCLINATION":"53.2156","TLE_LINE1":"1 51728U 22016Q   22162.91667824  .00055632  00000-0  34885-2 0  9991","EPOCH":"2022-06-11T22:00:00.999936","PERIOD":"95.439","ARG_OF_PERICENTER":"53.3617","OBJECT_ID":"2022-016Q","NORAD_CAT_ID":"51728","MEAN_ANOMALY":"164.8102","ECCENTRICITY":"0.00019170","TLE_LINE2":"2 51728  53.2156 334.7883 0001917  53.3617 164.8102 15.08814555  1304","MEAN_MOTION_DDOT":"0.0000000000000","DECAY_DATE":null,"APOAPSIS":"541.149","MEAN_MOTION":"15.08814555","EPHEMERIS_TYPE":"0","MEAN_ELEMENT_THEORY":"SGP4","FILE":"3492149","PERIAPSIS":"538.497","SITE":"AFETR","LAUNCH_DATE":"2022-02-21","OBJECT_NAME":"STARLINK-3448","CLASSIFICATION_TYPE":"U","REF_FRAME":"TEME","TIME_SYSTEM":"UTC","ELEMENT_SET_NO":"999","SEMIMAJOR_AXIS":"6917.958","REV_AT_EPOCH":"130","BSTAR":"0.00348850000000"},{"EPHEMERIS_TYPE":"0","MEAN_ELEMENT_THEORY":"SGP4","MEAN_MOTION":"15.08826320","DECAY_DATE":null,"APOAPSIS":"540.937","MEAN_MOTION_DDOT":"0.0000000000000","CLASSIFICATION_TYPE":"U","SITE":"AFETR","LAUNCH_DATE":"2022-02-21","OBJECT_NAME":"STARLINK-3523","FILE":"3492149","PERIAPSIS":"538.637","REF_FRAME":"TEME","ELEMENT_SET_NO":"999","TIME_SYSTEM":"UTC","SEMIMAJOR_AXIS":"6917.922","REV_AT_EPOCH":"130","BSTAR":"0.00134380000000","RCS_SIZE":"LARGE","RA_OF_ASC_NODE":"334.7885","GP_ID":"205928315","OBJECT_TYPE":"PAYLOAD","CENTER_NAME":"EARTH","INCLINATION":"53.2155","MEAN_MOTION_DOT":"0.00021155","COUNTRY_CODE":"US","TLE_LINE1":"1 51729U 22016R   22162.91667824  .00021155  00000-0  13438-2 0  9996","OBJECT_ID":"2022-016R","ARG_OF_PERICENTER":"47.5680","EPOCH":"2022-06-11T22:00:00.999936","PERIOD":"95.438","ECCENTRICITY":"0.00016620","TLE_LINE2":"2 51729  53.2155 334.7885 0001662  47.5680 110.6410 15.08826320  1302","MEAN_ANOMALY":"110.6410","NORAD_CAT_ID":"51729"},{"PERIOD":"95.439","EPOCH":"2022-06-11T22:00:00.999936","ARG_OF_PERICENTER":"56.4174","OBJECT_ID":"2022-016S","MEAN_ANOMALY":"201.7360","NORAD_CAT_ID":"51730","ECCENTRICITY":"0.00017690","TLE_LINE2":"2 51730  53.2176 334.7941 0001769  56.4174 201.7360 15.08815262  1304","TLE_LINE1":"1 51730U 22016S   22162.91667824  .00052478  00000-0  32932-2 0  9990","CENTER_NAME":"EARTH","OBJECT_TYPE":"PAYLOAD","COUNTRY_CODE":"US","MEAN_MOTION_DOT":"0.00052478","INCLINATION":"53.2176","RCS_SIZE":"LARGE","GP_ID":"205929566","RA_OF_ASC_NODE":"334.7941","BSTAR":"0.00329320000000","SEMIMAJOR_AXIS":"6917.956","REV_AT_EPOCH":"130","REF_FRAME":"TEME","ELEMENT_SET_NO":"999","TIME_SYSTEM":"UTC","MEAN_MOTION_DDOT":"0.0000000000000","APOAPSIS":"541.045","DECAY_DATE":null,"MEAN_MOTION":"15.08815262","MEAN_ELEMENT_THEORY":"SGP4","EPHEMERIS_TYPE":"0","FILE":"3492149","PERIAPSIS":"538.597","LAUNCH_DATE":"2022-02-21","SITE":"AFETR","CLASSIFICATION_TYPE":"U","OBJECT_NAME":"STARLINK-3530"},{"MEAN_MOTION_DDOT":"0.0000000000000","DECAY_DATE":null,"APOAPSIS":"541.003","MEAN_MOTION":"15.08822958","EPHEMERIS_TYPE":"0","MEAN_ELEMENT_THEORY":"SGP4","FILE":"3492149","PERIAPSIS":"538.592","LAUNCH_DATE":"2022-02-21","SITE":"AFETR","CLASSIFICATION_TYPE":"U","OBJECT_NAME":"STARLINK-3514","REF_FRAME":"TEME","TIME_SYSTEM":"UTC","ELEMENT_SET_NO":"999","SEMIMAJOR_AXIS":"6917.932","REV_AT_EPOCH":"130","BSTAR":"0.00148600000000","RCS_SIZE":"LARGE","GP_ID":"205929815","RA_OF_ASC_NODE":"334.7897","OBJECT_TYPE":"PAYLOAD","CENTER_NAME":"EARTH","COUNTRY_CODE":"US","MEAN_MOTION_DOT":"0.00023430","INCLINATION":"53.2160","TLE_LINE1":"1 51731U 22016T   22162.91667824  .00023430  00000-0  14860-2 0  9997","EPOCH":"2022-06-11T22:00:00.999936","PERIOD":"95.439","OBJECT_ID":"2022-016T","ARG_OF_PERICENTER":"48.1837","MEAN_ANOMALY":"150.0226","NORAD_CAT_ID":"51731","ECCENTRICITY":"0.00017420","TLE_LINE2":"2 51731  53.2160 334.7897 0001742  48.1837 150.0226 15.08822958  1300"},{"MEAN_MOTION_DDOT":"0.0000000000000","DECAY_DATE":null,"APOAPSIS":"540.959","MEAN_MOTION":"15.08811062","MEAN_ELEMENT_THEORY":"SGP4","EPHEMERIS_TYPE":"0","FILE":"3492149","PERIAPSIS":"538.709","SITE":"AFETR","LAUNCH_DATE":"2022-02-21","CLASSIFICATION_TYPE":"U","OBJECT_NAME":"STARLINK-3518","REF_FRAME":"TEME","ELEMENT_SET_NO":"999","TIME_SYSTEM":"UTC","SEMIMAJOR_AXIS":"6917.969","REV_AT_EPOCH":"130","BSTAR":"0.00281850000000","RCS_SIZE":"LARGE","GP_ID":"205928565","RA_OF_ASC_NODE":"334.7953","OBJECT_TYPE":"PAYLOAD","CENTER_NAME":"EARTH","COUNTRY_CODE":"US","INCLINATION":"53.2187","MEAN_MOTION_DOT":"0.00044818","TLE_LINE1":"1 51732U 22016U   22162.91667824  .00044818  00000-0  28185-2 0  9996","PERIOD":"95.439","EPOCH":"2022-06-11T22:00:00.999936","ARG_OF_PERICENTER":"48.5281","OBJECT_ID":"2022-016U","MEAN_ANOMALY":"229.6632","NORAD_CAT_ID":"51732","ECCENTRICITY":"0.00016260","TLE_LINE2":"2 51732  53.2187 334.7953 0001626  48.5281 229.6632 15.08811062  1309"},{"GP_ID":"205928815","RA_OF_ASC_NODE":"334.7881","RCS_SIZE":"LARGE","COUNTRY_CODE":"US","MEAN_MOTION_DOT":"0.00054174","INCLINATION":"53.2156","OBJECT_TYPE":"PAYLOAD","CENTER_NAME":"EARTH","TLE_LINE1":"1 51733U 22016V   22162.91667824  .00054174  00000-0  33982-2 0  9994","NORAD_CAT_ID":"51733","MEAN_ANOMALY":"192.7798","ECCENTRICITY":"0.00018770","TLE_LINE2":"2 51733  53.2156 334.7881 0001877  45.3941 192.7798 15.08815269  1308","PERIOD":"95.439","EPOCH":"2022-06-11T22:00:00.999936","OBJECT_ID":"2022-016V","ARG_OF_PERICENTER":"45.3941","PERIAPSIS":"538.522","FILE":"3492149","CLASSIFICATION_TYPE":"U","SITE":"AFETR","LAUNCH_DATE":"2022-02-21","OBJECT_NAME":"STARLINK-3525","MEAN_MOTION_DDOT":"0.0000000000000","DECAY_DATE":null,"APOAPSIS":"541.119","MEAN_MOTION":"15.08815269","EPHEMERIS_TYPE":"0","MEAN_ELEMENT_THEORY":"SGP4","TIME_SYSTEM":"UTC","ELEMENT_SET_NO":"999","REF_FRAME":"TEME","REV_AT_EPOCH":"130","SEMIMAJOR_AXIS":"6917.956","BSTAR":"0.00339820000000"},{"REF_FRAME":"TEME","TIME_SYSTEM":"UTC","ELEMENT_SET_NO":"999","MEAN_MOTION_DDOT":"0.0000000000000","APOAPSIS":"541.028","DECAY_DATE":null,"MEAN_MOTION":"15.08777687","EPHEMERIS_TYPE":"0","MEAN_ELEMENT_THEORY":"SGP4","FILE":"3492149","PERIAPSIS":"538.844","SITE":"AFETR","LAUNCH_DATE":"2022-02-21","OBJECT_NAME":"STARLINK-3450","CLASSIFICATION_TYPE":"U","BSTAR":"0.00599400000000","SEMIMAJOR_AXIS":"6918.071","REV_AT_EPOCH":"130","OBJECT_TYPE":"PAYLOAD","CENTER_NAME":"EARTH","COUNTRY_CODE":"US","MEAN_MOTION_DOT":"0.00096247","INCLINATION":"53.2170","RCS_SIZE":"LARGE","GP_ID":"205929067","RA_OF_ASC_NODE":"334.7974","PERIOD":"95.441","EPOCH":"2022-06-11T22:00:00.999936","ARG_OF_PERICENTER":"65.9022","OBJECT_ID":"2022-016W","NORAD_CAT_ID":"51734","MEAN_ANOMALY":"272.2593","ECCENTRICITY":"0.00015780","TLE_LINE2":"2 51734  53.2170 334.7974 0001578  65.9022 272.2593 15.08777687  1302","TLE_LINE1":"1 51734U 22016W   22162.91667824  .00096247  00000-0  59940-2 0  9994"},{"TLE_LINE1":"1 51735U 22016X   22162.91667824  .00032851  00000-0  20731-2 0  9992","MEAN_ANOMALY":"242.1887","NORAD_CAT_ID":"51735","ECCENTRICITY":"0.00015590","TLE_LINE2":"2 51735  53.2182 334.7938 0001559  56.0025 242.1887 15.08830178  1306","EPOCH":"2022-06-11T22:00:00.999936","PERIOD":"95.438","ARG_OF_PERICENTER":"56.0025","OBJECT_ID":"2022-016X","GP_ID":"205929316","RA_OF_ASC_NODE":"334.7938","RCS_SIZE":"LARGE","INCLINATION":"53.2182","MEAN_MOTION_DOT":"0.00032851","COUNTRY_CODE":"US","CENTER_NAME":"EARTH","OBJECT_TYPE":"PAYLOAD","REV_AT_EPOCH":"130","SEMIMAJOR_AXIS":"6917.910","BSTAR":"0.00207310000000","FILE":"3492149","PERIAPSIS":"538.697","OBJECT_NAME":"STARLINK-3517","SITE":"AFETR","LAUNCH_DATE":"2022-02-21","CLASSIFICATION_TYPE":"U","MEAN_MOTION":"15.08830178","MEAN_ELEMENT_THEORY":"SGP4","EPHEMERIS_TYPE":"0","MEAN_MOTION_DDOT":"0.0000000000000","APOAPSIS":"540.854","DECAY_DATE":null,"TIME_SYSTEM":"UTC","ELEMENT_SET_NO":"999","REF_FRAME":"TEME"},{"MEAN_MOTION_DDOT":"0.0000000000000","APOAPSIS":"540.980","DECAY_DATE":null,"MEAN_MOTION":"15.08816766","MEAN_ELEMENT_THEORY":"SGP4","EPHEMERIS_TYPE":"0","PERIAPSIS":"538.653","FILE":"3492149","OBJECT_NAME":"STARLINK-3447","SITE":"AFETR","LAUNCH_DATE":"2022-02-21","CLASSIFICATION_TYPE":"U","REF_FRAME":"TEME","ELEMENT_SET_NO":"999","TIME_SYSTEM":"UTC","SEMIMAJOR_AXIS":"6917.951","REV_AT_EPOCH":"130","BSTAR":"0.00293440000000","RCS_SIZE":"LARGE","GP_ID":"205928066","RA_OF_ASC_NODE":"334.7984","CENTER_NAME":"EARTH","OBJECT_TYPE":"PAYLOAD","COUNTRY_CODE":"US","MEAN_MOTION_DOT":"0.00046693","INCLINATION":"53.2129","TLE_LINE1":"1 51736U 22016Y   22162.91667824  .00046693  00000-0  29344-2 0  9991","EPOCH":"2022-06-11T22:00:00.999936","PERIOD":"95.439","OBJECT_ID":"2022-016Y","ARG_OF_PERICENTER":"47.2692","NORAD_CAT_ID":"51736","MEAN_ANOMALY":"330.8933","TLE_LINE2":"2 51736  53.2129 334.7984 0001682  47.2692 330.8933 15.08816766  1302","ECCENTRICITY":"0.00016820"}];
